IRIDIUM 921             
1 24873U 97034E   25036.84365206  .00956572  49593-3  13053-2 0  9998
2 24873  86.3565 168.9690 0007287 300.0164 159.1826 16.06359602511834
IRIDIUM 26              
1 24903U 97043A   25036.79381344  .00001050  00000+0  34817-3 0  9997
2 24903  86.4019 165.7749 0002099  99.9772 260.1662 14.36958449437875
IRIDIUM 22              
1 24907U 97043E   25036.61596397  .00000937  00000+0  31720-3 0  9991
2 24907  86.4021 169.2698 0002061  93.3651 266.7782 14.35791819437899
DUMMY MASS 1            
1 24925U 97048A   25036.71416423  .00001108  00000+0  12140-3 0  9994
2 24925  86.3371 196.0547 0004504 244.7892 115.2866 14.86776941485596
DUMMY MASS 2            
1 24926U 97048B   25036.92371853  .00001125  00000+0  12405-3 0  9998
2 24926  86.3370 197.5399 0005203 261.4434  98.6201 14.86531055485404
IRIDIUM 29              
1 24944U 97051A   25036.96290048  .00001170  00000+0  39403-3 0  9999
2 24944  86.3981 198.8728 0001939  85.9121 274.2297 14.36263402434433
IRIDIUM 33              
1 24946U 97051C   25036.94260460  .00000773  00000+0  26605-3 0  9992
2 24946  86.3899 198.1319 0009165 136.4632 223.7289 14.34752372433920
IRIDIUM 28              
1 24948U 97051E   25036.95167099  .00001047  00000+0  34532-3 0  9992
2 24948  86.3991 196.4700 0002242 101.9109 258.2340 14.37200080434991
